TIANMU-1 08             
1 57400U 23101B   26066.00237819  .00000346  00000+0  14775-4 0  9993
2 57400  97.2717 118.7901 0006380 134.2174 225.9592 15.29204229146020
STARLINK-31913          
1 59667U 24084P   26068.28563546  .00000152  00000+0  15055-4 0  9999
2 59667  43.0063  40.4201 0001926 269.9979  90.0652 15.27582330104352
